{
  "type": "FeatureCollection",
  "features": [
    {
      "type": "Feature",
      "properties": {
        "norad_id": 33972,
        "name": "COSMOS 2251 DEB",
        "group": "cosmos-2251-debris",
        "lat": 69.5626136765135,
        "lon": -145.02636403322748,
        "alt_km": 789.8583271191828,
        "timestamp": "2025-12-26T21:25:53.402672+00:00",
        "meta_object_name": "COSMOS 2251 DEB",
        "meta_object_id": "1993-036FF",
        "meta_epoch": "2025-12-26T11:11:21.362208",
        "meta_mean_motion": 14.36329751,
        "meta_eccentricity": 0.01239991,
        "meta_inclination": 73.9952,
        "meta_ra_of_asc_node": 165.384,
        "meta_arg_of_pericenter": 330.0923,
        "meta_mean_anomaly": 59.9065,
        "meta_ephemeris_type": 0,
        "meta_classification_type": "U",
        "meta_norad_cat_id": 33972,
        "meta_element_set_no": 999,
        "meta_rev_at_epoch": 87271,
        "meta_bstar": 0.0013984686,
        "meta_mean_motion_dot": 4.44e-05,
        "meta_mean_motion_ddot": 0,
        "tle_line1": "1 33972U 93036FF  25360.46621947  .00004440  00000+0  13985-2 0  9999",
        "tle_line2": "2 33972  73.9952 165.3840 0123999 330.0923  59.9065 14.36329751872711"
      },
      "geometry": {
        "type": "Point",
        "coordinates": [
          -145.02636403322748,
          69.5626136765135
        ]
      }
    },
    {
      "type": "Feature",
      "properties": {
        "norad_id": 33973,
        "name": "COSMOS 2251 DEB",
        "group": "cosmos-2251-debris",
        "lat": -63.67684714219317,
        "lon": 41.042401624163425,
        "alt_km": 721.2422660609482,
        "timestamp": "2025-12-26T21:25:53.402682+00:00",
        "meta_object_name": "COSMOS 2251 DEB",
        "meta_object_id": "1993-036FG",
        "meta_epoch": "2025-12-26T15:48:39.068064",
        "meta_mean_motion": 14.45405845,
        "meta_eccentricity": 0.004737,
        "meta_inclination": 74.0087,
        "meta_ra_of_asc_node": 76.9048,
        "meta_arg_of_pericenter": 252.7865,
        "meta_mean_anomaly": 259.9773,
        "meta_ephemeris_type": 0,
        "meta_classification_type": "U",
        "meta_norad_cat_id": 33973,
        "meta_element_set_no": 999,
        "meta_rev_at_epoch": 88801,
        "meta_bstar": 0.0001588575,
        "meta_mean_motion_dot": 5.38e-06,
        "meta_mean_motion_ddot": 0,
        "tle_line1": "1 33973U 93036FG  25360.65878551  .00000538  00000+0  15886-3 0  9993",
        "tle_line2": "2 33973  74.0087  76.9048 0047370 252.7865 259.9773 14.45405845888010"
      },
      "geometry": {
        "type": "Point",
        "coordinates": [
          41.042401624163425,
          -63.67684714219317
        ]
      }
    },
    {
      "type": "Feature",
      "properties": {
        "norad_id": 33975,
        "name": "COSMOS 2251 DEB",
        "group": "cosmos-2251-debris",
        "lat": 66.81886667960599,
        "lon": -163.17806335951428,
        "alt_km": 866.672456653173,
        "timestamp": "2025-12-26T21:25:53.402692+00:00",
        "meta_object_name": "COSMOS 2251 DEB",
        "meta_object_id": "1993-036FJ",
        "meta_epoch": "2025-12-26T05:28:58.034208",
        "meta_mean_motion": 14.00550507,
        "meta_eccentricity": 0.01907816,
        "meta_inclination": 73.8014,
        "meta_ra_of_asc_node": 60.7419,
        "meta_arg_of_pericenter": 191.5414,
        "meta_mean_anomaly": 168.1317,
        "meta_ephemeris_type": 0,
        "meta_classification_type": "U",
        "meta_norad_cat_id": 33975,
        "meta_element_set_no": 999,
        "meta_rev_at_epoch": 86018,
        "meta_bstar": 0.00049735151,
        "meta_mean_motion_dot": 8.4e-06,
        "meta_mean_motion_ddot": 0,
        "tle_line1": "1 33975U 93036FJ  25360.22844947  .00000840  00000+0  49735-3 0  9996",
        "tle_line2": "2 33975  73.8014  60.7419 0190781 191.5414 168.1317 14.00550507860187"
      },
      "geometry": {
        "type": "Point",
        "coordinates": [
          -163.17806335951428,
          66.81886667960599
        ]
      }
    },
    {
      "type": "Feature",
      "properties": {
        "norad_id": 33980,
        "name": "COSMOS 2251 DEB",
        "group": "cosmos-2251-debris",
        "lat": 23.472941815494547,
        "lon": 39.567063883381,
        "alt_km": 713.5314224920085,
        "timestamp": "2025-12-26T21:25:53.402703+00:00",
        "meta_object_name": "COSMOS 2251 DEB",
        "meta_object_id": "1993-036FP",
        "meta_epoch": "2025-12-26T12:01:53.268672",
        "meta_mean_motion": 14.58725098,
        "meta_eccentricity": 0.00277901,
        "meta_inclination": 74.0208,
        "meta_ra_of_asc_node": 33.1654,
        "meta_arg_of_pericenter": 175.7857,
        "meta_mean_anomaly": 312.9834,
        "meta_ephemeris_type": 0,
        "meta_classification_type": "U",
        "meta_norad_cat_id": 33980,
        "meta_element_set_no": 999,
        "meta_rev_at_epoch": 88995,
        "meta_bstar": 0.00056249209,
        "meta_mean_motion_dot": 2.61e-05,
        "meta_mean_motion_ddot": 0,
        "tle_line1": "1 33980U 93036FP  25360.50131098  .00002610  00000+0  56249-3 0  9994",
        "tle_line2": "2 33980  74.0208  33.1654 0027790 175.7857 312.9834 14.58725098889951"
      },
      "geometry": {
        "type": "Point",
        "coordinates": [
          39.567063883381,
          23.472941815494547
        ]
      }
    },
    {
      "type": "Feature",
      "properties": {
        "norad_id": 33982,
        "name": "COSMOS 2251 DEB",
        "group": "cosmos-2251-debris",
        "lat": -40.55268439075779,
        "lon": -41.17343146746473,
        "alt_km": 668.3090840304021,
        "timestamp": "2025-12-26T21:25:53.402713+00:00",
        "meta_object_name": "COSMOS 2251 DEB",
        "meta_object_id": "1993-036FR",
        "meta_epoch": "2025-12-26T09:09:19.508256",
        "meta_mean_motion": 14.60275564,
        "meta_eccentricity": 0.00755728,
        "meta_inclination": 74.0714,
        "meta_ra_of_asc_node": 333.9451,
        "meta_arg_of_pericenter": 14.6591,
        "meta_mean_anomaly": 135.7423,
        "meta_ephemeris_type": 0,
        "meta_classification_type": "U",
        "meta_norad_cat_id": 33982,
        "meta_element_set_no": 999,
        "meta_rev_at_epoch": 89358,
        "meta_bstar": 0.00061330179,
        "meta_mean_motion_dot": 3.052e-05,
        "meta_mean_motion_ddot": 0,
        "tle_line1": "1 33982U 93036FR  25360.38147579  .00003052  00000+0  61330-3 0  9991",
        "tle_line2": "2 33982  74.0714 333.9451 0075572  14.6591 135.7423 14.60275564893588"
      },
      "geometry": {
        "type": "Point",
        "coordinates": [
          -41.17343146746473,
          -40.55268439075779
        ]
      }
    },
    {
      "type": "Feature",
      "properties": {
        "norad_id": 33983,
        "name": "COSMOS 2251 DEB",
        "group": "cosmos-2251-debris",
        "lat": 52.581090132177586,
        "lon": -81.48671521699735,
        "alt_km": 720.0037770070412,
        "timestamp": "2025-12-26T21:25:53.402723+00:00",
        "meta_object_name": "COSMOS 2251 DEB",
        "meta_object_id": "1993-036FS",
        "meta_epoch": "2025-12-26T11:15:14.535936",
        "meta_mean_motion": 14.50727999,
        "meta_eccentricity": 0.00210773,
        "meta_inclination": 74.0505,
        "meta_ra_of_asc_node": 121.259,
        "meta_arg_of_pericenter": 222.9559,
        "meta_mean_anomaly": 207.7208,
        "meta_ephemeris_type": 0,
        "meta_classification_type": "U",
        "meta_norad_cat_id": 33983,
        "meta_element_set_no": 999,
        "meta_rev_at_epoch": 88828,
        "meta_bstar": 0.00060305307,
        "meta_mean_motion_dot": 2.351e-05,
        "meta_mean_motion_ddot": 0,
        "tle_line1": "1 33983U 93036FS  25360.46891824  .00002351  00000+0  60305-3 0  9992",
        "tle_line2": "2 33983  74.0505 121.2590 0021077 222.9559 207.7208 14.50727999888283"
      },
      "geometry": {
        "type": "Point",
        "coordinates": [
          -81.48671521699735,
          52.581090132177586
        ]
      }
    },
    {
      "type": "Feature",
      "properties": {
        "norad_id": 33984,
        "name": "COSMOS 2251 DEB",
        "group": "cosmos-2251-debris",
        "lat": -46.69044502280725,
        "lon": -57.93930643193935,
        "alt_km": 693.3266828902533,
        "timestamp": "2025-12-26T21:25:53.402733+00:00",
        "meta_object_name": "COSMOS 2251 DEB",
        "meta_object_id": "1993-036FT",
        "meta_epoch": "2025-12-26T09:19:20.235360",
        "meta_mean_motion": 14.66481336,
        "meta_eccentricity": 0.00224088,
        "meta_inclination": 74.0098,
        "meta_ra_of_asc_node": 320.7441,
        "meta_arg_of_pericenter": 154.6221,
        "meta_mean_anomaly": 13.5669,
        "meta_ephemeris_type": 0,
        "meta_classification_type": "U",
        "meta_norad_cat_id": 33984,
        "meta_element_set_no": 999,
        "meta_rev_at_epoch": 89266,
        "meta_bstar": 0.00087653644,
        "meta_mean_motion_dot": 4.845e-05,
        "meta_mean_motion_ddot": 0,
        "tle_line1": "1 33984U 93036FT  25360.38842865  .00004845  00000+0  87654-3 0  9991",
        "tle_line2": "2 33984  74.0098 320.7441 0022408 154.6221  13.5669 14.66481336892668"
      },
      "geometry": {
        "type": "Point",
        "coordinates": [
          -57.93930643193935,
          -46.69044502280725
        ]
      }
    }
  ]
}